[{"OBJECT_NAME":"O3B FM8","OBJECT_ID":"2014-038D","EPOCH":"2026-02-01T14:33:18.000576","MEAN_MOTION":5.00115909,"ECCENTRICITY":0.00026341,"INCLINATION":0.0562,"RA_OF_ASC_NODE":351.9294,"ARG_OF_PERICENTER":323.7772,"MEAN_ANOMALY":44.2648,"EPHEMERIS_TYPE":0,"CLASSIFICATION_TYPE":"U","NORAD_CAT_ID":40082,"ELEMENT_SET_NO":999,"REV_AT_EPOCH":21116,"BSTAR":0,"MEAN_MOTION_DOT":-2.5e-7,"MEAN_MOTION_DDOT":0},{"OBJECT_NAME":"O3B FM10","OBJECT_ID":"2014-083A","EPOCH":"2026-01-15T01:02:01.916736","MEAN_MOTION":5.00115333,"ECCENTRICITY":0.00027133,"INCLINATION":0.0506,"RA_OF_ASC_NODE":359.9234,"ARG_OF_PERICENTER":293.4028,"MEAN_ANOMALY":66.6427,"EPHEMERIS_TYPE":0,"CLASSIFICATION_TYPE":"U","NORAD_CAT_ID":40348,"ELEMENT_SET_NO":999,"REV_AT_EPOCH":20222,"BSTAR":0,"MEAN_MOTION_DOT":-1.8e-7,"MEAN_MOTION_DDOT":0},{"OBJECT_NAME":"O3B FM11","OBJECT_ID":"2014-083B","EPOCH":"2026-02-01T15:30:32.863680","MEAN_MOTION":5.00115542,"ECCENTRICITY":0.00032761,"INCLINATION":0.0543,"RA_OF_ASC_NODE":1.9908,"ARG_OF_PERICENTER":301.8922,"MEAN_ANOMALY":56.0783,"EPHEMERIS_TYPE":0,"CLASSIFICATION_TYPE":"U","NORAD_CAT_ID":40349,"ELEMENT_SET_NO":999,"REV_AT_EPOCH":20313,"BSTAR":0,"MEAN_MOTION_DOT":-2.5e-7,"MEAN_MOTION_DDOT":0},{"OBJECT_NAME":"O3B FM12","OBJECT_ID":"2014-083C","EPOCH":"2026-02-01T20:57:26.341056","MEAN_MOTION":5.00115858,"ECCENTRICITY":0.00027278,"INCLINATION":0.0539,"RA_OF_ASC_NODE":1.0325,"ARG_OF_PERICENTER":306.5544,"MEAN_ANOMALY":52.3808,"EPHEMERIS_TYPE":0,"CLASSIFICATION_TYPE":"U","NORAD_CAT_ID":40350,"ELEMENT_SET_NO":999,"REV_AT_EPOCH":20315,"BSTAR":0,"MEAN_MOTION_DOT":-2.6e-7,"MEAN_MOTION_DDOT":0},{"OBJECT_NAME":"O3B FM9","OBJECT_ID":"2014-083D","EPOCH":"2026-02-01T21:36:04.164480","MEAN_MOTION":5.00115849,"ECCENTRICITY":0.00027621,"INCLINATION":0.0551,"RA_OF_ASC_NODE":2.5436,"ARG_OF_PERICENTER":309.6219,"MEAN_ANOMALY":47.8035,"EPHEMERIS_TYPE":0,"CLASSIFICATION_TYPE":"U","NORAD_CAT_ID":40351,"ELEMENT_SET_NO":999,"REV_AT_EPOCH":20329,"BSTAR":0,"MEAN_MOTION_DOT":-2.6e-7,"MEAN_MOTION_DDOT":0},{"OBJECT_NAME":"ASTRA 2G","OBJECT_ID":"2014-089A","EPOCH":"2026-02-01T22:10:45.981984","MEAN_MOTION":1.00269908,"ECCENTRICITY":0.00030775,"INCLINATION":0.0545,"RA_OF_ASC_NODE":333.6169,"ARG_OF_PERICENTER":39.913,"MEAN_ANOMALY":119.436,"EPHEMERIS_TYPE":0,"CLASSIFICATION_TYPE":"U","NORAD_CAT_ID":40364,"ELEMENT_SET_NO":999,"REV_AT_EPOCH":4061,"BSTAR":0,"MEAN_MOTION_DOT":1.4e-6,"MEAN_MOTION_DDOT":0},{"OBJECT_NAME":"SES-9","OBJECT_ID":"2016-013A","EPOCH":"2026-02-01T18:30:38.562624","MEAN_MOTION":1.00270549,"ECCENTRICITY":0.00010169,"INCLINATION":0.0474,"RA_OF_ASC_NODE":272.407,"ARG_OF_PERICENTER":103.9336,"MEAN_ANOMALY":141.5491,"EPHEMERIS_TYPE":0,"CLASSIFICATION_TYPE":"U","NORAD_CAT_ID":41380,"ELEMENT_SET_NO":999,"REV_AT_EPOCH":3608,"BSTAR":0,"MEAN_MOTION_DOT":-3.55e-6,"MEAN_MOTION_DDOT":0},{"OBJECT_NAME":"SES-10","OBJECT_ID":"2017-017A","EPOCH":"2026-02-01T08:01:57.532224","MEAN_MOTION":1.00272115,"ECCENTRICITY":0.00029632,"INCLINATION":0.0142,"RA_OF_ASC_NODE":54.1965,"ARG_OF_PERICENTER":263.4234,"MEAN_ANOMALY":227.4954,"EPHEMERIS_TYPE":0,"CLASSIFICATION_TYPE":"U","NORAD_CAT_ID":42432,"ELEMENT_SET_NO":999,"REV_AT_EPOCH":3238,"BSTAR":0,"MEAN_MOTION_DOT":-2.82e-6,"MEAN_MOTION_DDOT":0},{"OBJECT_NAME":"SES-15","OBJECT_ID":"2017-026A","EPOCH":"2026-02-01T18:00:24.972192","MEAN_MOTION":1.00270971,"ECCENTRICITY":8.278e-5,"INCLINATION":0.0334,"RA_OF_ASC_NODE":320.8404,"ARG_OF_PERICENTER":357.2405,"MEAN_ANOMALY":314.787,"EPHEMERIS_TYPE":0,"CLASSIFICATION_TYPE":"U","NORAD_CAT_ID":42709,"ELEMENT_SET_NO":999,"REV_AT_EPOCH":607,"BSTAR":0,"MEAN_MOTION_DOT":5.0e-7,"MEAN_MOTION_DDOT":0},{"OBJECT_NAME":"SES-11 (ECHOSTAR 105)","OBJECT_ID":"2017-063A","EPOCH":"2026-02-01T21:32:42.130176","MEAN_MOTION":1.00270635,"ECCENTRICITY":0.00024691,"INCLINATION":0.0145,"RA_OF_ASC_NODE":44.731,"ARG_OF_PERICENTER":248.4048,"MEAN_ANOMALY":57.1549,"EPHEMERIS_TYPE":0,"CLASSIFICATION_TYPE":"U","NORAD_CAT_ID":42967,"ELEMENT_SET_NO":999,"REV_AT_EPOCH":3036,"BSTAR":0,"MEAN_MOTION_DOT":-9.9e-7,"MEAN_MOTION_DDOT":0},{"OBJECT_NAME":"SES-14","OBJECT_ID":"2018-012B","EPOCH":"2026-02-01T18:23:45.234528","MEAN_MOTION":1.00272725,"ECCENTRICITY":0.00011775,"INCLINATION":0.0099,"RA_OF_ASC_NODE":31.8023,"ARG_OF_PERICENTER":263.7741,"MEAN_ANOMALY":64.8065,"EPHEMERIS_TYPE":0,"CLASSIFICATION_TYPE":"U","NORAD_CAT_ID":43175,"ELEMENT_SET_NO":999,"REV_AT_EPOCH":566,"BSTAR":0,"MEAN_MOTION_DOT":-2.88e-6,"MEAN_MOTION_DDOT":0},{"OBJECT_NAME":"O3B FM15","OBJECT_ID":"2018-024A","EPOCH":"2026-02-01T18:24:20.649024","MEAN_MOTION":5.00115591,"ECCENTRICITY":0.00027843,"INCLINATION":0.0463,"RA_OF_ASC_NODE":359.5249,"ARG_OF_PERICENTER":308.4536,"MEAN_ANOMALY":51.9887,"EPHEMERIS_TYPE":0,"CLASSIFICATION_TYPE":"U","NORAD_CAT_ID":43231,"ELEMENT_SET_NO":999,"REV_AT_EPOCH":14424,"BSTAR":0,"MEAN_MOTION_DOT":-2.5e-7,"MEAN_MOTION_DDOT":0},{"OBJECT_NAME":"O3B FM16","OBJECT_ID":"2018-024B","EPOCH":"2026-02-01T19:39:46.980864","MEAN_MOTION":5.00115793,"ECCENTRICITY":0.00028501,"INCLINATION":0.0421,"RA_OF_ASC_NODE":359.745,"ARG_OF_PERICENTER":307.7669,"MEAN_ANOMALY":52.4546,"EPHEMERIS_TYPE":0,"CLASSIFICATION_TYPE":"U","NORAD_CAT_ID":43232,"ELEMENT_SET_NO":999,"REV_AT_EPOCH":14416,"BSTAR":0,"MEAN_MOTION_DOT":-2.6e-7,"MEAN_MOTION_DDOT":0},{"OBJECT_NAME":"O3B FM14","OBJECT_ID":"2018-024C","EPOCH":"2026-02-01T15:50:36.171168","MEAN_MOTION":5.00115524,"ECCENTRICITY":0.00028839,"INCLINATION":0.0413,"RA_OF_ASC_NODE":357.9949,"ARG_OF_PERICENTER":314.9796,"MEAN_ANOMALY":46.9937,"EPHEMERIS_TYPE":0,"CLASSIFICATION_TYPE":"U","NORAD_CAT_ID":43233,"ELEMENT_SET_NO":999,"REV_AT_EPOCH":14417,"BSTAR":0,"MEAN_MOTION_DOT":-2.5e-7,"MEAN_MOTION_DDOT":0},{"OBJECT_NAME":"SES-12","OBJECT_ID":"2018-049A","EPOCH":"2026-02-01T22:29:51.652896","MEAN_MOTION":1.00272844,"ECCENTRICITY":0.00025428,"INCLINATION":0.0156,"RA_OF_ASC_NODE":5.9932,"ARG_OF_PERICENTER":286.8051,"MEAN_ANOMALY":271.7712,"EPHEMERIS_TYPE":0,"CLASSIFICATION_TYPE":"U","NORAD_CAT_ID":43488,"ELEMENT_SET_NO":999,"REV_AT_EPOCH":2806,"BSTAR":0,"MEAN_MOTION_DOT":-2.79e-6,"MEAN_MOTION_DDOT":0},{"OBJECT_NAME":"O3B FM20","OBJECT_ID":"2019-020A","EPOCH":"2026-02-01T16:28:03.734112","MEAN_MOTION":5.00115426,"ECCENTRICITY":0.00029817,"INCLINATION":0.0497,"RA_OF_ASC_NODE":359.5822,"ARG_OF_PERICENTER":301.4426,"MEAN_ANOMALY":58.9383,"EPHEMERIS_TYPE":0,"CLASSIFICATION_TYPE":"U","NORAD_CAT_ID":44112,"ELEMENT_SET_NO":999,"REV_AT_EPOCH":12478,"BSTAR":0,"MEAN_MOTION_DOT":-2.5e-7,"MEAN_MOTION_DDOT":0},{"OBJECT_NAME":"O3B FM19","OBJECT_ID":"2019-020B","EPOCH":"2026-01-31T07:32:16.136160","MEAN_MOTION":5.00115915,"ECCENTRICITY":0.00049677,"INCLINATION":0.0617,"RA_OF_ASC_NODE":11.8532,"ARG_OF_PERICENTER":322.0231,"MEAN_ANOMALY":26.0917,"EPHEMERIS_TYPE":0,"CLASSIFICATION_TYPE":"U","NORAD_CAT_ID":44113,"ELEMENT_SET_NO":999,"REV_AT_EPOCH":12459,"BSTAR":0,"MEAN_MOTION_DOT":-2.4e-7,"MEAN_MOTION_DDOT":0}]
